{"type": "FeatureCollection", "features": [ {"type": "Feature", "properties": {"norad_id": 66499, "name": "STARLINK-35816", "group": "last-30-days", "lat": 16.15524597096267, "lon": -26.00417552579017, "alt_km": 368.1451487562663, "timestamp": "2025-12-04T17:48:38.963377+00:00", "meta": {"OBJECT_NAME": "STARLINK-35816", "OBJECT_ID": "2025-263Q", "EPOCH": "2025-12-04T08:00:01.999872", "MEAN_MOTION": 15.67842608, "ECCENTRICITY": 0.00017614, "INCLINATION": 42.9993, "RA_OF_ASC_NODE": 174.5587, "ARG_OF_PERICENTER": 267.4974, "MEAN_ANOMALY": 99.7324, "EPHEMERIS_TYPE": 0, "CLASSIFICATION_TYPE": "U", "NORAD_CAT_ID": 66499, "ELEMENT_SET_NO": 999, "REV_AT_EPOCH": 428, "BSTAR": -0.019883431, "MEAN_MOTION_DOT": -0.01986585, "MEAN_MOTION_DDOT": 0}, "tle": {"line1": "1 66499U 25263Q   25338.33335648 -.01986585  00000+0 -19883-1 0  9991", "line2": "2 66499  42.9993 174.5587 0001761 267.4974  99.7324 15.67842608  4288"}}, "geometry": {"type": "Point", "coordinates": [-26.00417552579017, 16.15524597096267]}}, {"type": "Feature", "properties": {"norad_id": 66500, "name": "STARLINK-35894", "group": "last-30-days", "lat": 21.829589915424865, "lon": -33.329532858965095, "alt_km": 373.27648466761, "timestamp": "2025-12-04T17:48:38.963387+00:00", "meta": {"OBJECT_NAME": "STARLINK-35894", "OBJECT_ID": "2025-263R", "EPOCH": "2025-12-04T08:00:01.999872", "MEAN_MOTION": 15.66221025, "ECCENTRICITY": 0.00017231, "INCLINATION": 42.9993, "RA_OF_ASC_NODE": 174.5745, "ARG_OF_PERICENTER": 264.4301, "MEAN_ANOMALY": 96.56, "EPHEMERIS_TYPE": 0, "CLASSIFICATION_TYPE": "U", "NORAD_CAT_ID": 66500, "ELEMENT_SET_NO": 999, "REV_AT_EPOCH": 428, "BSTAR": -0.026653673, "MEAN_MOTION_DOT": -0.02471588, "MEAN_MOTION_DDOT": 0}, "tle": {"line1": "1 66500U 25263R   25338.33335648 -.02471588  00000+0 -26654-1 0  9991", "line2": "2 66500  42.9993 174.5745 0001723 264.4301  96.5600 15.66221025  4281"}}, "geometry": {"type": "Point", "coordinates": [-33.329532858965095, 21.829589915424865]}}, {"type": "Feature", "properties": {"norad_id": 66501, "name": "STARLINK-35897", "group": "last-30-days", "lat": 14.906721048824538, "lon": -24.49690623306309, "alt_km": 368.2837408641217, "timestamp": "2025-12-04T17:48:38.963397+00:00", "meta": {"OBJECT_NAME": "STARLINK-35897", "OBJECT_ID": "2025-263S", "EPOCH": "2025-12-04T08:00:01.999872", "MEAN_MOTION": 15.67842909, "ECCENTRICITY": 0.00017207, "INCLINATION": 42.9992, "RA_OF_ASC_NODE": 174.5537, "ARG_OF_PERICENTER": 267.5021, "MEAN_ANOMALY": 101.6448, "EPHEMERIS_TYPE": 0, "CLASSIFICATION_TYPE": "U", "NORAD_CAT_ID": 66501, "ELEMENT_SET_NO": 999, "REV_AT_EPOCH": 428, "BSTAR": -0.019885559, "MEAN_MOTION_DOT": -0.01986761, "MEAN_MOTION_DDOT": 0}, "tle": {"line1": "1 66501U 25263S   25338.33335648 -.01986761  00000+0 -19886-1 0  9994", "line2": "2 66501  42.9992 174.5537 0001720 267.5021 101.6448 15.67842909  4289"}}, "geometry": {"type": "Point", "coordinates": [-24.49690623306309, 14.906721048824538]}}, {"type": "Feature", "properties": {"norad_id": 66502, "name": "STARLINK-35922", "group": "last-30-days", "lat": 11.109199576290477, "lon": -20.076991261032457, "alt_km": 368.75531267698716, "timestamp": "2025-12-04T17:48:38.963410+00:00", "meta": {"OBJECT_NAME": "STARLINK-35922", "OBJECT_ID": "2025-263T", "EPOCH": "2025-12-04T08:00:01.999872", "MEAN_MOTION": 15.67829082, "ECCENTRICITY": 0.00018448, "INCLINATION": 42.9992, "RA_OF_ASC_NODE": 174.5388, "ARG_OF_PERICENTER": 267.5554, "MEAN_ANOMALY": 107.3522, "EPHEMERIS_TYPE": 0, "CLASSIFICATION_TYPE": "U", "NORAD_CAT_ID": 66502, "ELEMENT_SET_NO": 999, "REV_AT_EPOCH": 428, "BSTAR": -0.01973787, "MEAN_MOTION_DOT": -0.01972864, "MEAN_MOTION_DDOT": 0}, "tle": {"line1": "1 66502U 25263T   25338.33335648 -.01972864  00000+0 -19738-1 0  9990", "line2": "2 66502  42.9992 174.5388 0001844 267.5554 107.3522 15.67829082  4285"}}, "geometry": {"type": "Point", "coordinates": [-20.076991261032457, 11.109199576290477]}}, {"type": "Feature", "properties": {"norad_id": 66503, "name": "STARLINK-35917", "group": "last-30-days", "lat": 8.538166342778696, "lon": -17.19329510925798, "alt_km": 369.0065466195756, "timestamp": "2025-12-04T17:48:38.963422+00:00", "meta": {"OBJECT_NAME": "STARLINK-35917", "OBJECT_ID": "2025-263U", "EPOCH": "2025-12-04T08:00:01.999872", "MEAN_MOTION": 15.67832572, "ECCENTRICITY": 0.00016782, "INCLINATION": 42.9992, "RA_OF_ASC_NODE": 174.5293, "ARG_OF_PERICENTER": 267.2137, "MEAN_ANOMALY": 111.5275, "EPHEMERIS_TYPE": 0, "CLASSIFICATION_TYPE": "U", "NORAD_CAT_ID": 66503, "ELEMENT_SET_NO": 999, "REV_AT_EPOCH": 428, "BSTAR": -0.019787023, "MEAN_MOTION_DOT": -0.01977309, "MEAN_MOTION_DDOT": 0}, "tle": {"line1": "1 66503U 25263U   25338.33335648 -.01977309  00000+0 -19787-1 0  9994", "line2": "2 66503  42.9992 174.5293 0001678 267.2137 111.5275 15.67832572  4280"}}, "geometry": {"type": "Point", "coordinates": [-17.19329510925798, 8.538166342778696]}}, {"type": "Feature", "properties": {"norad_id": 66504, "name": "STARLINK-35916", "group": "last-30-days", "lat": -34.84758436288331, "lon": 41.14489932163849, "alt_km": 418.2773449345859, "timestamp": "2025-12-04T17:48:38.963432+00:00", "meta": {"OBJECT_NAME": "STARLINK-35916", "OBJECT_ID": "2025-263V", "EPOCH": "2025-12-04T08:00:01.999872", "MEAN_MOTION": 15.50890123, "ECCENTRICITY": 0.00017883, "INCLINATION": 42.9992, "RA_OF_ASC_NODE": 175.1885, "ARG_OF_PERICENTER": 279.7388, "MEAN_ANOMALY": 192.7717, "EPHEMERIS_TYPE": 0, "CLASSIFICATION_TYPE": "U", "NORAD_CAT_ID": 66504, "ELEMENT_SET_NO": 999, "REV_AT_EPOCH": 428, "BSTAR": -0.015027115, "MEAN_MOTION_DOT": -0.00816865, "MEAN_MOTION_DDOT": 0}, "tle": {"line1": "1 66504U 25263V   25338.33335648 -.00816865  00000+0 -15027-1 0  9996", "line2": "2 66504  42.9992 175.1885 0001788 279.7388 192.7717 15.50890123  4283"}}, "geometry": {"type": "Point", "coordinates": [41.14489932163849, -34.84758436288331]}}, {"type": "Feature", "properties": {"norad_id": 66505, "name": "STARLINK-34766", "group": "last-30-days", "lat": 13.648566512967278, "lon": -23.007653709539305, "alt_km": 368.3669020344514, "timestamp": "2025-12-04T17:48:38.963445+00:00", "meta": {"OBJECT_NAME": "STARLINK-34766", "OBJECT_ID": "2025-263W", "EPOCH": "2025-12-04T08:00:01.999872", "MEAN_MOTION": 15.67846658, "ECCENTRICITY": 0.00016555, "INCLINATION": 42.9991, "RA_OF_ASC_NODE": 174.5484, "ARG_OF_PERICENTER": 265.4467, "MEAN_ANOMALY": 105.615, "EPHEMERIS_TYPE": 0, "CLASSIFICATION_TYPE": "U", "NORAD_CAT_ID": 66505, "ELEMENT_SET_NO": 999, "REV_AT_EPOCH": 428, "BSTAR": -0.01993246, "MEAN_MOTION_DOT": -0.01991103, "MEAN_MOTION_DDOT": 0}, "tle": {"line1": "1 66505U 25263W   25338.33335648 -.01991103  00000+0 -19932-1 0  9996", "line2": "2 66505  42.9991 174.5484 0001655 265.4467 105.6150 15.67846658  4280"}}, "geometry": {"type": "Point", "coordinates": [-23.007653709539305, 13.648566512967278]}}, {"type": "Feature", "properties": {"norad_id": 66506, "name": "STARLINK-34765", "group": "last-30-days", "lat": 12.382829339627197, "lon": -21.53445200374222, "alt_km": 368.47486257190485, "timestamp": "2025-12-04T17:48:38.963455+00:00", "meta": {"OBJECT_NAME": "STARLINK-34765", "OBJECT_ID": "2025-263X", "EPOCH": "2025-12-04T08:00:01.999872", "MEAN_MOTION": 15.67847404, "ECCENTRICITY": 0.00016956, "INCLINATION": 42.9992, "RA_OF_ASC_NODE": 174.5443, "ARG_OF_PERICENTER": 263.5582, "MEAN_ANOMALY": 109.4195, "EPHEMERIS_TYPE": 0, "CLASSIFICATION_TYPE": "U", "NORAD_CAT_ID": 66506, "ELEMENT_SET_NO": 999, "REV_AT_EPOCH": 428, "BSTAR": -0.019941085, "MEAN_MOTION_DOT": -0.01991948, "MEAN_MOTION_DDOT": 0}, "tle": {"line1": "1 66506U 25263X   25338.33335648 -.01991948  00000+0 -19941-1 0  9994", "line2": "2 66506  42.9992 174.5443 0001695 263.5582 109.4195 15.67847404  4289"}}, "geometry": {"type": "Point", "coordinates": [-21.53445200374222, 12.382829339627197]}}, {"type": "Feature", "properties": {"norad_id": 66507, "name": "STARLINK-34767", "group": "last-30-days", "lat": 9.827062720257382, "lon": -18.630342572586798, "alt_km": 368.8890933044195, "timestamp": "2025-12-04T17:48:38.963464+00:00", "meta": {"OBJECT_NAME": "STARLINK-34767", "OBJECT_ID": "2025-263Y", "EPOCH": "2025-12-04T08:00:01.999872", "MEAN_MOTION": 15.67844568, "ECCENTRICITY": 0.00017569, "INCLINATION": 42.9992, "RA_OF_ASC_NODE": 174.5336, "ARG_OF_PERICENTER": 267.8039, "MEAN_ANOMALY": 109.0097, "EPHEMERIS_TYPE": 0, "CLASSIFICATION_TYPE": "U", "NORAD_CAT_ID": 66507, "ELEMENT_SET_NO": 999, "REV_AT_EPOCH": 428, "BSTAR": -0.01990643, "MEAN_MOTION_DOT": -0.01988746, "MEAN_MOTION_DDOT": 0}, "tle": {"line1": "1 66507U 25263Y   25338.33335648 -.01988746  00000+0 -19906-1 0  9998", "line2": "2 66507  42.9992 174.5336 0001756 267.8039 109.0097 15.67844568  4288"}}, "geometry": {"type": "Point", "coordinates": [-18.630342572586798, 9.827062720257382]}}, {"type": "Feature", "properties": {"norad_id": 66508, "name": "STARLINK-35608", "group": "last-30-days", "lat": 5.950488167067268, "lon": -14.35330472454109, "alt_km": 369.33118673411445, "timestamp": "2025-12-04T17:48:38.963474+00:00", "meta": {"OBJECT_NAME": "STARLINK-35608", "OBJECT_ID": "2025-263Z", "EPOCH": "2025-12-04T08:00:01.999872", "MEAN_MOTION": 15.67827043, "ECCENTRICITY": 0.00018593, "INCLINATION": 42.9992, "RA_OF_ASC_NODE": 174.5199, "ARG_OF_PERICENTER": 268.1849, "MEAN_ANOMALY": 114.392, "EPHEMERIS_TYPE": 0, "CLASSIFICATION_TYPE": "U", "NORAD_CAT_ID": 66508, "ELEMENT_SET_NO": 999, "REV_AT_EPOCH": 428, "BSTAR": -0.019709138, "MEAN_MOTION_DOT": -0.01970198, "MEAN_MOTION_DDOT": 0}, "tle": {"line1": "1 66508U 25263Z   25338.33335648 -.01970198  00000+0 -19709-1 0  9992", "line2": "2 66508  42.9992 174.5199 0001859 268.1849 114.3920 15.67827043  4286"}}, "geometry": {"type": "Point", "coordinates": [-14.35330472454109, 5.950488167067268]}}]}